{
    "links": {
        "self": "http://www.neowsapp.com/rest/v1/neo/3799310?api_key=iIulBulltgU6a56xZRHN4H3l9WmuAYTsLGpBGhQ2"
    },
    "id": "3799310",
    "neo_reference_id": "3799310",
    "name": "(2018 CC3)",
    "designation": "2018 CC3",
    "nasa_jpl_url": "http://ssd.jpl.nasa.gov/sbdb.cgi?sstr=3799310",
    "absolute_magnitude_h": 26.7,
    "estimated_diameter": {
        "kilometers": {
            "estimated_diameter_min": 0.0121494041,
            "estimated_diameter_max": 0.0271668934
        },
        "meters": {
            "estimated_diameter_min": 12.14940408,
            "estimated_diameter_max": 27.1668934089
        },
        "miles": {
            "estimated_diameter_min": 0.0075492874,
            "estimated_diameter_max": 0.0168807197
        },
        "feet": {
            "estimated_diameter_min": 39.8602508817,
            "estimated_diameter_max": 89.1302305717
        }
    },
    "is_potentially_hazardous_asteroid": false,
    "close_approach_data": [
        {
            "close_approach_date": "2018-02-07",
            "close_approach_date_full": "2018-Feb-07 01:45",
            "epoch_date_close_approach": 1517967900000,
            "relative_velocity": {
                "kilometers_per_second": "11.4556417063",
                "kilometers_per_hour": "41240.3101427081",
                "miles_per_hour": "25625.1249328399"
            },
            "miss_distance": {
                "astronomical": "0.0180978688",
                "lunar": "7.0400709632",
                "kilometers": "2707402.624019456",
                "miles": "1682301.9811862528"
            },
            "orbiting_body": "Earth"
        }
    ],
    "orbital_data": {
        "orbit_id": "1",
        "orbit_determination_date": "2018-02-12 08:12:04",
        "first_observation_date": "2018-02-10",
        "last_observation_date": "2018-02-12",
        "data_arc_in_days": 2,
        "observations_used": 29,
        "orbit_uncertainty": "8",
        "minimum_orbit_intersection": ".0107486",
        "jupiter_tisserand_invariant": "3.823",
        "epoch_osculation": "2458160.5",
        "eccentricity": ".5105085138067417",
        "semi_major_axis": "1.851359552353468",
        "inclination": "9.306660127783893",
        "ascending_node_longitude": "139.3276118187737",
        "orbital_period": "920.0990530161606",
        "perihelion_distance": ".9062247387595845",
        "perihelion_argument": "314.8896287256628",
        "aphelion_distance": "2.796494365947352",
        "perihelion_time": "2458123.941464173034",
        "mean_anomaly": "14.30397396298222",
        "mean_motion": ".3912622220617338",
        "equinox": "J2000",
        "orbit_class": {
            "orbit_class_type": "APO",
            "orbit_class_description": "Near-Earth asteroid orbits which cross the Earth’s orbit similar to that of 1862 Apollo",
            "orbit_class_range": "a (semi-major axis) > 1.0 AU; q (perihelion) < 1.017 AU"
        }
    },
    "is_sentry_object": false
}